BRO-15                  
1 60553U 24149CP  26068.78650368  .00000816  00000+0  78021-4 0  9990
2 60553  97.6864 146.0377 0009320  65.4416 294.7775 14.95892184 85149
STARLINK-34478          
1 64435U 25129Z   26068.45704800  .00001294  00000+0  11621-3 0  9990
2 64435  70.0017  74.9962 0003311 268.3923  91.6856 14.98328243 41191
